ONEWEB-0264             
1 48982U 21060R   23281.92333847  .00000111  00000+0  25761-3 0  9991
2 48982  87.9039  64.2799 0001722  94.3183 265.8145 13.16592548111633
ONEWEB-0266             
1 48984U 21060T   23281.86950454 -.00000007  00000+0 -53156-4 0  9991
2 48984  87.9036  64.2769 0001528  94.0687 266.0619 13.16593837110325
ONEWEB-0267             
1 48985U 21060U   23282.10806254 -.00000027  00000+0 -10500-3 0  9995
2 48985  87.9036  64.2304 0002123  87.1615 272.9759 13.16595636111654
ONEWEB-0268             
1 48986U 21060V   23281.84838706  .00000090  00000+0  20297-3 0  9995
2 48986  87.9037  64.2852 0001701  97.1575 262.9749 13.16598534110591
ONEWEB-0269             
1 48987U 21060W   23281.82941265 -.00000008  00000+0 -55712-4 0  9991
2 48987  87.9125  64.3142 0001663  97.4110 262.7210 13.16594324110367
ONEWEB-0270             
1 48988U 21060X   23281.92228161  .00000126  00000+0  29499-3 0  9997
2 48988  87.9033  64.2839 0001950  72.2895 287.8448 13.16596826111729
ONEWEB-0271             
1 48989U 21060Y   23281.83361894  .00000053  00000+0  10447-3 0  9991
2 48989  87.9033  64.2768 0002051  83.4488 276.6876 13.16596851110409
ONEWEB-0272             
1 48990U 21060Z   23281.85684192  .00000094  00000+0  21121-3 0  9990
2 48990  87.9036  64.2967 0001946  86.6353 273.5001 13.16595214110355
